[{"OBJECT_NAME":"STARLINK-4678","OBJECT_ID":"2022-111H","EPOCH":"2026-03-09T21:21:33.715584","MEAN_MOTION":15.0883721,"ECCENTRICITY":0.00013935,"INCLINATION":53.2175,"RA_OF_ASC_NODE":273.4177,"ARG_OF_PERICENTER":85.3248,"MEAN_ANOMALY":274.7904,"EPHEMERIS_TYPE":0,"CLASSIFICATION_TYPE":"U","NORAD_CAT_ID":53780,"ELEMENT_SET_NO":999,"REV_AT_EPOCH":19372,"BSTAR":2.5211543e-5,"MEAN_MOTION_DOT":1.13e-6,"MEAN_MOTION_DDOT":0},{"OBJECT_NAME":"DISKSAT D","OBJECT_ID":"2025-305C","EPOCH":"2026-03-09T13:15:42.202656","MEAN_MOTION":15.07416577,"ECCENTRICITY":0.00037124,"INCLINATION":45.0023,"RA_OF_ASC_NODE":251.6339,"ARG_OF_PERICENTER":319.2749,"MEAN_ANOMALY":40.7848,"EPHEMERIS_TYPE":0,"CLASSIFICATION_TYPE":"U","NORAD_CAT_ID":67221,"ELEMENT_SET_NO":999,"REV_AT_EPOCH":1227,"BSTAR":0.00076840651,"MEAN_MOTION_DOT":0.00011599,"MEAN_MOTION_DDOT":0}]
