STARLINK-4678           
1 53780U 22111H   26068.88997355  .00000113  00000+0  25212-4 0  9996
2 53780  53.2175 273.4177 0001394  85.3248 274.7904 15.08837210193726
DISKSAT D               
1 67221U 25305C   26068.55257179  .00011599  00000+0  76841-3 0  9999
2 67221  45.0023 251.6339 0003712 319.2749  40.7848 15.07416577 12277
